STARLINK-36336          
1 67901U 26035Y   26077.17991896  .00001046  00000+0  63131-5 0  9990
2 67901  97.2903  10.0435 0006741 281.1513  78.8997 15.80435608  5189
STARLINK-36876          
1 67902U 26035Z   26077.30796871  .00429995  00000+0  21248-2 0  9999
2 67902  97.2892  10.1757 0000664  52.4666 307.6662 15.80937904  5202
STARLINK-36257          
1 67903U 26035AA  26077.25884027  .00252044  00000+0  16372-2 0  9996
2 67903  97.2884  10.0923 0001186 119.2055 240.9329 15.75247234  5193
STARLINK-36814          
1 67904U 26036A   26077.25002315  .00080017  00000+0  13588-2 0  9995
2 67904  43.0004 199.1282 0001509 265.7039 182.2570 15.50518123  5021
STARLINK-36729          
1 67905U 26036B   26077.25002315  .00084339  00000+0  14305-2 0  9995
2 67905  43.0004 198.4804 0001328 274.4042  75.6445 15.50528701  5023
STARLINK-36763          
1 67906U 26036C   26077.25002315  .00097576  00000+0  16528-2 0  9992
2 67906  43.0003 198.4065 0002130 279.1095 100.7744 15.50504006  5028
STARLINK-36742          
1 67907U 26036D   26077.25002315  .00084400  00000+0  14315-2 0  9997
2 67907  43.0003 198.4573 0001158 281.9077  77.3565 15.50529183  5026
STARLINK-36827          
1 67908U 26036E   26077.25002315 -.01858589  00000+0 -31888-1 0  9991
2 67908  43.0003 198.1561 0001691 277.9695 203.5464 15.53803089  5028
STARLINK-36822          
1 67909U 26036F   26077.25002315  .00087289  00000+0  14806-2 0  9992
2 67909  43.0003 198.3983 0001914 264.7031 118.0007 15.50513250  5023
STARLINK-36847          
1 67910U 26036G   26077.25002315  .00091282  00000+0  15476-2 0  9996
2 67910  43.0003 198.4456 0001700 303.2059  60.3551 15.50507334  5022
STARLINK-36736          
1 67911U 26036H   26077.25002315 -.01873042  00000+0 -28281-1 0  9999
2 67911  42.9999 197.9284 0001308 272.9728 300.0872 15.57255325  5024
STARLINK-36676          
1 67912U 26036J   26077.25002315 -.01870536  00000+0 -30571-1 0  9990
2 67912  43.0000 198.0340 0001357 275.1741 255.2297 15.55140762  5027
STARLINK-36690          
1 67913U 26036K   26077.25002315 -.01871038  00000+0 -30532-1 0  9996
2 67913  42.9999 198.0213 0001324 275.5649 260.0636 15.55183668  5020
STARLINK-36724          
1 67914U 26036L   26077.25002315 -.01876104  00000+0 -30184-1 0  9999
2 67914  42.9998 197.9775 0001276 275.5741 277.4228 15.55572868  5023
STARLINK-36723          
1 67915U 26036M   26077.25002315 -.01874048  00000+0 -28666-1 0  9997
2 67915  43.0001 197.9144 0001256 270.7477 307.8164 15.56914389  5028
STARLINK-36721          
1 67916U 26036N   26077.25002315 -.01871831  00000+0 -28591-1 0  9992
2 67916  42.9997 197.8911 0001255 268.3939 319.4825 15.56948185  5021
