[{"OBJECT_NAME":"STARLINK-36336","OBJECT_ID":"2026-035Y","EPOCH":"2026-03-18T04:19:04.998144","MEAN_MOTION":15.80435608,"ECCENTRICITY":0.00067419,"INCLINATION":97.2903,"RA_OF_ASC_NODE":10.0435,"ARG_OF_PERICENTER":281.1513,"MEAN_ANOMALY":78.8997,"EPHEMERIS_TYPE":0,"CLASSIFICATION_TYPE":"U","NORAD_CAT_ID":67901,"ELEMENT_SET_NO":999,"REV_AT_EPOCH":518,"BSTAR":6.31309e-6,"MEAN_MOTION_DOT":1.046e-5,"MEAN_MOTION_DDOT":0},{"OBJECT_NAME":"STARLINK-36876","OBJECT_ID":"2026-035Z","EPOCH":"2026-03-18T07:23:28.496544","MEAN_MOTION":15.80937904,"ECCENTRICITY":6.647e-5,"INCLINATION":97.2892,"RA_OF_ASC_NODE":10.1757,"ARG_OF_PERICENTER":52.4666,"MEAN_ANOMALY":307.6662,"EPHEMERIS_TYPE":0,"CLASSIFICATION_TYPE":"U","NORAD_CAT_ID":67902,"ELEMENT_SET_NO":999,"REV_AT_EPOCH":520,"BSTAR":0.0021247976,"MEAN_MOTION_DOT":0.00429995,"MEAN_MOTION_DDOT":0},{"OBJECT_NAME":"STARLINK-36257","OBJECT_ID":"2026-035AA","EPOCH":"2026-03-18T06:12:43.799328","MEAN_MOTION":15.75247234,"ECCENTRICITY":0.00011861,"INCLINATION":97.2884,"RA_OF_ASC_NODE":10.0923,"ARG_OF_PERICENTER":119.2055,"MEAN_ANOMALY":240.9329,"EPHEMERIS_TYPE":0,"CLASSIFICATION_TYPE":"U","NORAD_CAT_ID":67903,"ELEMENT_SET_NO":999,"REV_AT_EPOCH":519,"BSTAR":0.0016372333,"MEAN_MOTION_DOT":0.00252044,"MEAN_MOTION_DDOT":0},{"OBJECT_NAME":"STARLINK-36814","OBJECT_ID":"2026-036A","EPOCH":"2026-03-18T06:00:02.000160","MEAN_MOTION":15.50518123,"ECCENTRICITY":0.0001509,"INCLINATION":43.0004,"RA_OF_ASC_NODE":199.1282,"ARG_OF_PERICENTER":265.7039,"MEAN_ANOMALY":182.257,"EPHEMERIS_TYPE":0,"CLASSIFICATION_TYPE":"U","NORAD_CAT_ID":67904,"ELEMENT_SET_NO":999,"REV_AT_EPOCH":502,"BSTAR":0.0013587897,"MEAN_MOTION_DOT":0.00080017,"MEAN_MOTION_DDOT":0},{"OBJECT_NAME":"STARLINK-36729","OBJECT_ID":"2026-036B","EPOCH":"2026-03-18T06:00:02.000160","MEAN_MOTION":15.50528701,"ECCENTRICITY":0.00013281,"INCLINATION":43.0004,"RA_OF_ASC_NODE":198.4804,"ARG_OF_PERICENTER":274.4042,"MEAN_ANOMALY":75.6445,"EPHEMERIS_TYPE":0,"CLASSIFICATION_TYPE":"U","NORAD_CAT_ID":67905,"ELEMENT_SET_NO":999,"REV_AT_EPOCH":502,"BSTAR":0.0014305475,"MEAN_MOTION_DOT":0.00084339,"MEAN_MOTION_DDOT":0},{"OBJECT_NAME":"STARLINK-36763","OBJECT_ID":"2026-036C","EPOCH":"2026-03-18T06:00:02.000160","MEAN_MOTION":15.50504006,"ECCENTRICITY":0.00021305,"INCLINATION":43.0003,"RA_OF_ASC_NODE":198.4065,"ARG_OF_PERICENTER":279.1095,"MEAN_ANOMALY":100.7744,"EPHEMERIS_TYPE":0,"CLASSIFICATION_TYPE":"U","NORAD_CAT_ID":67906,"ELEMENT_SET_NO":999,"REV_AT_EPOCH":502,"BSTAR":0.0016527537,"MEAN_MOTION_DOT":0.00097576,"MEAN_MOTION_DDOT":0},{"OBJECT_NAME":"STARLINK-36742","OBJECT_ID":"2026-036D","EPOCH":"2026-03-18T06:00:02.000160","MEAN_MOTION":15.50529183,"ECCENTRICITY":0.00011583,"INCLINATION":43.0003,"RA_OF_ASC_NODE":198.4573,"ARG_OF_PERICENTER":281.9077,"MEAN_ANOMALY":77.3565,"EPHEMERIS_TYPE":0,"CLASSIFICATION_TYPE":"U","NORAD_CAT_ID":67907,"ELEMENT_SET_NO":999,"REV_AT_EPOCH":502,"BSTAR":0.0014315414,"MEAN_MOTION_DOT":0.000844,"MEAN_MOTION_DDOT":0},{"OBJECT_NAME":"STARLINK-36827","OBJECT_ID":"2026-036E","EPOCH":"2026-03-18T06:00:02.000160","MEAN_MOTION":15.53803089,"ECCENTRICITY":0.00016912,"INCLINATION":43.0003,"RA_OF_ASC_NODE":198.1561,"ARG_OF_PERICENTER":277.9695,"MEAN_ANOMALY":203.5464,"EPHEMERIS_TYPE":0,"CLASSIFICATION_TYPE":"U","NORAD_CAT_ID":67908,"ELEMENT_SET_NO":999,"REV_AT_EPOCH":502,"BSTAR":-0.031888019,"MEAN_MOTION_DOT":-0.01858589,"MEAN_MOTION_DDOT":0},{"OBJECT_NAME":"STARLINK-36822","OBJECT_ID":"2026-036F","EPOCH":"2026-03-18T06:00:02.000160","MEAN_MOTION":15.5051325,"ECCENTRICITY":0.00019145,"INCLINATION":43.0003,"RA_OF_ASC_NODE":198.3983,"ARG_OF_PERICENTER":264.7031,"MEAN_ANOMALY":118.0007,"EPHEMERIS_TYPE":0,"CLASSIFICATION_TYPE":"U","NORAD_CAT_ID":67909,"ELEMENT_SET_NO":999,"REV_AT_EPOCH":502,"BSTAR":0.0014806044,"MEAN_MOTION_DOT":0.00087289,"MEAN_MOTION_DDOT":0},{"OBJECT_NAME":"STARLINK-36847","OBJECT_ID":"2026-036G","EPOCH":"2026-03-18T06:00:02.000160","MEAN_MOTION":15.50507334,"ECCENTRICITY":0.00017009,"INCLINATION":43.0003,"RA_OF_ASC_NODE":198.4456,"ARG_OF_PERICENTER":303.2059,"MEAN_ANOMALY":60.3551,"EPHEMERIS_TYPE":0,"CLASSIFICATION_TYPE":"U","NORAD_CAT_ID":67910,"ELEMENT_SET_NO":999,"REV_AT_EPOCH":502,"BSTAR":0.0015476142,"MEAN_MOTION_DOT":0.00091282,"MEAN_MOTION_DDOT":0},{"OBJECT_NAME":"STARLINK-36736","OBJECT_ID":"2026-036H","EPOCH":"2026-03-18T06:00:02.000160","MEAN_MOTION":15.57255325,"ECCENTRICITY":0.00013085,"INCLINATION":42.9999,"RA_OF_ASC_NODE":197.9284,"ARG_OF_PERICENTER":272.9728,"MEAN_ANOMALY":300.0872,"EPHEMERIS_TYPE":0,"CLASSIFICATION_TYPE":"U","NORAD_CAT_ID":67911,"ELEMENT_SET_NO":999,"REV_AT_EPOCH":502,"BSTAR":-0.028280711,"MEAN_MOTION_DOT":-0.01873042,"MEAN_MOTION_DDOT":0},{"OBJECT_NAME":"STARLINK-36676","OBJECT_ID":"2026-036J","EPOCH":"2026-03-18T06:00:02.000160","MEAN_MOTION":15.55140762,"ECCENTRICITY":0.00013573,"INCLINATION":43,"RA_OF_ASC_NODE":198.034,"ARG_OF_PERICENTER":275.1741,"MEAN_ANOMALY":255.2297,"EPHEMERIS_TYPE":0,"CLASSIFICATION_TYPE":"U","NORAD_CAT_ID":67912,"ELEMENT_SET_NO":999,"REV_AT_EPOCH":502,"BSTAR":-0.030570833,"MEAN_MOTION_DOT":-0.01870536,"MEAN_MOTION_DDOT":0},{"OBJECT_NAME":"STARLINK-36690","OBJECT_ID":"2026-036K","EPOCH":"2026-03-18T06:00:02.000160","MEAN_MOTION":15.55183668,"ECCENTRICITY":0.00013245,"INCLINATION":42.9999,"RA_OF_ASC_NODE":198.0213,"ARG_OF_PERICENTER":275.5649,"MEAN_ANOMALY":260.0636,"EPHEMERIS_TYPE":0,"CLASSIFICATION_TYPE":"U","NORAD_CAT_ID":67913,"ELEMENT_SET_NO":999,"REV_AT_EPOCH":502,"BSTAR":-0.030531666,"MEAN_MOTION_DOT":-0.01871038,"MEAN_MOTION_DDOT":0},{"OBJECT_NAME":"STARLINK-36724","OBJECT_ID":"2026-036L","EPOCH":"2026-03-18T06:00:02.000160","MEAN_MOTION":15.55572868,"ECCENTRICITY":0.00012767,"INCLINATION":42.9998,"RA_OF_ASC_NODE":197.9775,"ARG_OF_PERICENTER":275.5741,"MEAN_ANOMALY":277.4228,"EPHEMERIS_TYPE":0,"CLASSIFICATION_TYPE":"U","NORAD_CAT_ID":67914,"ELEMENT_SET_NO":999,"REV_AT_EPOCH":502,"BSTAR":-0.030184316,"MEAN_MOTION_DOT":-0.01876104,"MEAN_MOTION_DDOT":0},{"OBJECT_NAME":"STARLINK-36723","OBJECT_ID":"2026-036M","EPOCH":"2026-03-18T06:00:02.000160","MEAN_MOTION":15.56914389,"ECCENTRICITY":0.00012565,"INCLINATION":43.0001,"RA_OF_ASC_NODE":197.9144,"ARG_OF_PERICENTER":270.7477,"MEAN_ANOMALY":307.8164,"EPHEMERIS_TYPE":0,"CLASSIFICATION_TYPE":"U","NORAD_CAT_ID":67915,"ELEMENT_SET_NO":999,"REV_AT_EPOCH":502,"BSTAR":-0.028665609,"MEAN_MOTION_DOT":-0.01874048,"MEAN_MOTION_DDOT":0},{"OBJECT_NAME":"STARLINK-36721","OBJECT_ID":"2026-036N","EPOCH":"2026-03-18T06:00:02.000160","MEAN_MOTION":15.56948185,"ECCENTRICITY":0.00012556,"INCLINATION":42.9997,"RA_OF_ASC_NODE":197.8911,"ARG_OF_PERICENTER":268.3939,"MEAN_ANOMALY":319.4825,"EPHEMERIS_TYPE":0,"CLASSIFICATION_TYPE":"U","NORAD_CAT_ID":67916,"ELEMENT_SET_NO":999,"REV_AT_EPOCH":502,"BSTAR":-0.02859072,"MEAN_MOTION_DOT":-0.01871831,"MEAN_MOTION_DDOT":0}]
